0 FENGYUN 1C DEB
1 30826U 99025AVL 13282.25544333  .00001255  00000-0  21876-3 0  6457
2 30826 098.8801 080.3790 0213515 036.1266 083.5642 14.56266950352027
0 FENGYUN 1C DEB
1 30826U 99025AVL 13286.70909873  .00001301  00000-0  22671-3 0  6473
2 30826 098.8803 085.1227 0213237 022.5831 032.1536 14.56275263352675
0 FENGYUN 1C DEB
1 30826U 99025AVL 13289.26382065  .00001405  00000-0  24400-3 0  6483
2 30826 098.8807 087.8440 0213075 014.8059 105.5499 14.56287067353041
0 FENGYUN 1C DEB
1 30826U 99025AVL 13291.65635565  .00001460  00000-0  25324-3 0  6493
2 30826 098.8811 090.3926 0212927 007.5218 048.7540 14.56293703353392
0 FENGYUN 1C DEB
1 30826U 99025AVL 13293.71687708  .00001810  00000-0  31141-3 0  6503
2 30826 098.8812 092.5878 0212815 001.2436 051.3854 14.56298453353690
